start=new Date('2023-03-23T00:00:00.000Z').valueOf();
sats=[{"FILE":"3867351","PERIAPSIS":"546.311","REF_FRAME":"TEME","MEAN_MOTION":"15.06411146","CLASSIFICATION_TYPE":"U","MEAN_ANOMALY":"281.5224","ELEMENT_SET_NO":"999","TIME_SYSTEM":"UTC","INCLINATION":"53.0509","RA_OF_ASC_NODE":"269.3065","MEAN_MOTION_DOT":"0.00016569","APOAPSIS":"548.048","CENTER_NAME":"EARTH","ECCENTRICITY":"0.00012540","MEAN_ELEMENT_THEORY":"SGP4","PERIOD":"95.591","GP_ID":"228632535","TLE_LINE1":"1 45565U 20025AL  23081.48664485  .00016569  00000-0  11283-2 0  9997","REV_AT_EPOCH":"16151","ARG_OF_PERICENTER":"78.5905","RCS_SIZE":"LARGE","EPOCH":"2023-03-22T11:40:46.115040","MEAN_MOTION_DDOT":"0.0000000000000","DECAY_DATE":null,"TLE_LINE2":"2 45565  53.0509 269.3065 0001254  78.5905 281.5224 15.06411146161513","OBJECT_ID":"2020-025AL","LAUNCH_DATE":"2020-04-22","OBJECT_NAME":"STARLINK-1357","COUNTRY_CODE":"US","BSTAR":"0.00112830000000","OBJECT_TYPE":"PAYLOAD","NORAD_CAT_ID":"45565","SITE":"AFETR","SEMIMAJOR_AXIS":"6925.314","EPHEMERIS_TYPE":"0"},{"PERIAPSIS":"546.268","FILE":"3867452","ELEMENT_SET_NO":"999","REF_FRAME":"TEME","MEAN_MOTION":"15.06410561","CLASSIFICATION_TYPE":"U","MEAN_ANOMALY":"278.5021","INCLINATION":"53.0538","RA_OF_ASC_NODE":"269.2389","TIME_SYSTEM":"UTC","CENTER_NAME":"EARTH","MEAN_MOTION_DOT":"0.00014420","APOAPSIS":"548.094","MEAN_ELEMENT_THEORY":"SGP4","PERIOD":"95.591","ECCENTRICITY":"0.00013180","EPOCH":"2023-03-22T12:01:59.876544","DECAY_DATE":null,"MEAN_MOTION_DDOT":"0.0000000000000","TLE_LINE1":"1 45566U 20025AM  23081.50138746  .00014420  00000-0  98471-3 0  9996","GP_ID":"228634726","REV_AT_EPOCH":"16150","ARG_OF_PERICENTER":"81.6118","RCS_SIZE":"LARGE","OBJECT_NAME":"STARLINK-1358","TLE_LINE2":"2 45566  53.0538 269.2389 0001318  81.6118 278.5021 15.06410561161506","OBJECT_ID":"2020-025AM","LAUNCH_DATE":"2020-04-22","COUNTRY_CODE":"US","BSTAR":"0.00098471000000","OBJECT_TYPE":"PAYLOAD","SITE":"AFETR","NORAD_CAT_ID":"45566","SEMIMAJOR_AXIS":"6925.316","EPHEMERIS_TYPE":"0"},{"PERIAPSIS":"546.391","FILE":"3867698","ELEMENT_SET_NO":"999","MEAN_ANOMALY":"280.6659","CLASSIFICATION_TYPE":"U","MEAN_MOTION":"15.06416817","REF_FRAME":"TEME","RA_OF_ASC_NODE":"267.9969","INCLINATION":"53.0528","TIME_SYSTEM":"UTC","CENTER_NAME":"EARTH","APOAPSIS":"547.933","MEAN_MOTION_DOT":"0.00022512","PERIOD":"95.591","MEAN_ELEMENT_THEORY":"SGP4","ECCENTRICITY":"0.00011140","MEAN_MOTION_DDOT":"0.0000000000000","DECAY_DATE":null,"EPOCH":"2023-03-22T18:40:04.432512","ARG_OF_PERICENTER":"79.4456","RCS_SIZE":"LARGE","REV_AT_EPOCH":"16154","GP_ID":"228639205","TLE_LINE1":"1 45567U 20025AN  23081.77782908  .00022512  00000-0  15247-2 0  9991","OBJECT_NAME":"STARLINK-1361","LAUNCH_DATE":"2020-04-22","OBJECT_ID":"2020-025AN","TLE_LINE2":"2 45567  53.0528 267.9969 0001114  79.4456 280.6659 15.06416817161544","EPHEMERIS_TYPE":"0","SEMIMAJOR_AXIS":"6925.297","SITE":"AFETR","NORAD_CAT_ID":"45567","OBJECT_TYPE":"PAYLOAD","BSTAR":"0.00152470000000","COUNTRY_CODE":"US"},{"CENTER_NAME":"EARTH","MEAN_MOTION_DOT":"0.00019234","APOAPSIS":"547.599","INCLINATION":"53.0508","RA_OF_ASC_NODE":"268.1748","TIME_SYSTEM":"UTC","ELEMENT_SET_NO":"999","REF_FRAME":"TEME","MEAN_MOTION":"15.06438232","CLASSIFICATION_TYPE":"U","MEAN_ANOMALY":"292.5797","PERIAPSIS":"546.594","FILE":"3867698","BSTAR":"0.00130530000000","COUNTRY_CODE":"US","OBJECT_TYPE":"PAYLOAD","NORAD_CAT_ID":"45568","SITE":"AFETR","SEMIMAJOR_AXIS":"6925.231","EPHEMERIS_TYPE":"0","OBJECT_NAME":"STARLINK-1363","TLE_LINE2":"2 45568  53.0508 268.1748 0000726  67.5269 292.5797 15.06438232161549","LAUNCH_DATE":"2020-04-22","OBJECT_ID":"2020-025AP","EPOCH":"2023-03-22T19:01:20.174304","DECAY_DATE":null,"MEAN_MOTION_DDOT":"0.0000000000000","TLE_LINE1":"1 45568U 20025AP  23081.79259461  .00019234  00000-0  13053-2 0  9997","GP_ID":"228639196","REV_AT_EPOCH":"16154","RCS_SIZE":"LARGE","ARG_OF_PERICENTER":"67.5269","MEAN_ELEMENT_THEORY":"SGP4","PERIOD":"95.590","ECCENTRICITY":"0.00007260"},{"CENTER_NAME":"EARTH","MEAN_MOTION_DOT":"0.00022668","APOAPSIS":"547.855","INCLINATION":"53.0508","RA_OF_ASC_NODE":"267.9853","TIME_SYSTEM":"UTC","ELEMENT_SET_NO":"999","REF_FRAME":"TEME","MEAN_MOTION":"15.06437771","CLASSIFICATION_TYPE":"U","MEAN_ANOMALY":"274.6347","PERIAPSIS":"546.340","FILE":"3867789","BSTAR":"0.00153420000000","COUNTRY_CODE":"US","OBJECT_TYPE":"PAYLOAD","SITE":"AFETR","NORAD_CAT_ID":"45569","SEMIMAJOR_AXIS":"6925.233","EPHEMERIS_TYPE":"0","OBJECT_NAME":"STARLINK-1366","TLE_LINE2":"2 45569  53.0508 267.9853 0001094  85.4767 274.6347 15.06437771161544","OBJECT_ID":"2020-025AQ","LAUNCH_DATE":"2020-04-22","EPOCH":"2023-03-22T18:45:23.080896","MEAN_MOTION_DDOT":"0.0000000000000","DECAY_DATE":null,"GP_ID":"228641564","TLE_LINE1":"1 45569U 20025AQ  23081.78151714  .00022668  00000-0  15342-2 0  9997","REV_AT_EPOCH":"16154","RCS_SIZE":"LARGE","ARG_OF_PERICENTER":"85.4767","MEAN_ELEMENT_THEORY":"SGP4","PERIOD":"95.590","ECCENTRICITY":"0.00010940"},{"TIME_SYSTEM":"UTC","INCLINATION":"53.0523","RA_OF_ASC_NODE":"268.0146","APOAPSIS":"548.184","MEAN_MOTION_DOT":"0.00019825","CENTER_NAME":"EARTH","FILE":"3867788","PERIAPSIS":"546.073","CLASSIFICATION_TYPE":"U","REF_FRAME":"TEME","MEAN_MOTION":"15.06427697","MEAN_ANOMALY":"278.4005","ELEMENT_SET_NO":"999","OBJECT_ID":"2020-025AR","LAUNCH_DATE":"2020-04-22","TLE_LINE2":"2 45570  53.0523 268.0146 0001524  81.7157 278.4005 15.06427697161550","OBJECT_NAME":"STARLINK-1376","OBJECT_TYPE":"PAYLOAD","COUNTRY_CODE":"US","BSTAR":"0.00134510000000","EPHEMERIS_TYPE":"0","NORAD_CAT_ID":"45570","SITE":"AFETR","SEMIMAJOR_AXIS":"6925.264","ECCENTRICITY":"0.00015240","MEAN_ELEMENT_THEORY":"SGP4","PERIOD":"95.590","GP_ID":"228641061","TLE_LINE1":"1 45570U 20025AR  23081.77414304  .00019825  00000-0  13451-2 0  9995","ARG_OF_PERICENTER":"81.7157","RCS_SIZE":"LARGE","REV_AT_EPOCH":"16155","EPOCH":"2023-03-22T18:34:45.958656","MEAN_MOTION_DDOT":"0.0000000000000","DECAY_DATE":null},{"APOAPSIS":"547.936","MEAN_MOTION_DOT":"0.00001945","CENTER_NAME":"EARTH","TIME_SYSTEM":"UTC","INCLINATION":"53.0537","RA_OF_ASC_NODE":"260.6240","CLASSIFICATION_TYPE":"U","REF_FRAME":"TEME","MEAN_MOTION":"15.06406637","MEAN_ANOMALY":"275.1770","ELEMENT_SET_NO":"999","FILE":"3867345","PERIAPSIS":"546.451","OBJECT_TYPE":"PAYLOAD","BSTAR":"0.00014939000000","COUNTRY_CODE":"US","EPHEMERIS_TYPE":"0","SEMIMAJOR_AXIS":"6925.328","SITE":"AFETR","NORAD_CAT_ID":"45571","LAUNCH_DATE":"2020-04-22","OBJECT_ID":"2020-025AS","TLE_LINE2":"2 45571  53.0537 260.6240 0001072  84.9342 275.1770 15.06406637161608","OBJECT_NAME":"STARLINK-1261","GP_ID":"228632281","TLE_LINE1":"1 45571U 20025AS  23081.19269008  .00001945  00000-0  14939-3 0  9998","ARG_OF_PERICENTER":"84.9342","RCS_SIZE":"LARGE","REV_AT_EPOCH":"16160","EPOCH":"2023-03-22T04:37:28.422912","MEAN_MOTION_DDOT":"0.0000000000000","DECAY_DATE":null,"ECCENTRICITY":"0.00010720","MEAN_ELEMENT_THEORY":"SGP4","PERIOD":"95.592"},{"TIME_SYSTEM":"UTC","RA_OF_ASC_NODE":"262.4463","INCLINATION":"53.0522","APOAPSIS":"547.895","MEAN_MOTION_DOT":"0.00008049","CENTER_NAME":"EARTH","FILE":"3866953","PERIAPSIS":"546.492","MEAN_ANOMALY":"283.8663","CLASSIFICATION_TYPE":"U","MEAN_MOTION":"15.06406607","REF_FRAME":"TEME","ELEMENT_SET_NO":"999","LAUNCH_DATE":"2020-04-22","OBJECT_ID":"2020-025AT","TLE_LINE2":"2 45572  53.0522 262.4463 0001013  76.2438 283.8663 15.06406607162149","OBJECT_NAME":"STARLINK-1320","EPHEMERIS_TYPE":"0","NORAD_CAT_ID":"45572","SITE":"AFETR","SEMIMAJOR_AXIS":"6925.328","OBJECT_TYPE":"PAYLOAD","COUNTRY_CODE":"US","BSTAR":"0.00055852000000","ECCENTRICITY":"0.00010130","PERIOD":"95.592","MEAN_ELEMENT_THEORY":"SGP4","ARG_OF_PERICENTER":"76.2438","RCS_SIZE":"LARGE","REV_AT_EPOCH":"16214","GP_ID":"228617255","TLE_LINE1":"1 45572U 20025AT  23080.78724365  .00008049  00000-0  55852-3 0  9996","DECAY_DATE":null,"MEAN_MOTION_DDOT":"0.0000000000000","EPOCH":"2023-03-21T18:53:37.851360"},{"TIME_SYSTEM":"UTC","RA_OF_ASC_NODE":"258.0779","INCLINATION":"53.0531","APOAPSIS":"547.862","MEAN_MOTION_DOT":"0.00023469","CENTER_NAME":"EARTH","FILE":"3867692","PERIAPSIS":"546.337","MEAN_ANOMALY":"294.5574","CLASSIFICATION_TYPE":"U","REF_FRAME":"TEME","MEAN_MOTION":"15.06437110","ELEMENT_SET_NO":"999","LAUNCH_DATE":"2020-04-22","OBJECT_ID":"2020-025AU","TLE_LINE2":"2 45573  53.0531 258.0779 0001101  65.5529 294.5574 15.06437110161682","OBJECT_NAME":"STARLINK-1321","EPHEMERIS_TYPE":"0","SITE":"AFETR","SEMIMAJOR_AXIS":"6925.235","NORAD_CAT_ID":"45573","OBJECT_TYPE":"PAYLOAD","COUNTRY_CODE":"US","BSTAR":"0.00158760000000","ECCENTRICITY":"0.00011010","PERIOD":"95.590","MEAN_ELEMENT_THEORY":"SGP4","ARG_OF_PERICENTER":"65.5529","RCS_SIZE":"LARGE","REV_AT_EPOCH":"16168","TLE_LINE1":"1 45573U 20025AU  23081.76031675  .00023469  00000-0  15876-2 0  9995","GP_ID":"228638639","DECAY_DATE":null,"MEAN_MOTION_DDOT":"0.0000000000000","EPOCH":"2023-03-22T18:14:51.367200"},{"BSTAR":"0.00117770000000","COUNTRY_CODE":"US","OBJECT_TYPE":"PAYLOAD","SITE":"AFETR","NORAD_CAT_ID":"45574","SEMIMAJOR_AXIS":"6925.341","EPHEMERIS_TYPE":"0","TLE_LINE2":"2 45574  53.0525 260.6412 0000960  77.1539 282.9558 15.06402334161606","LAUNCH_DATE":"2020-04-22","OBJECT_ID":"2020-025AV","OBJECT_NAME":"STARLINK-1324","GP_ID":"228632310","TLE_LINE1":"1 45574U 20025AV  23081.18900839  .00017305  00000-0  11777-2 0  9997","REV_AT_EPOCH":"16160","ARG_OF_PERICENTER":"77.1539","RCS_SIZE":"LARGE","EPOCH":"2023-03-22T04:32:10.324896","MEAN_MOTION_DDOT":"0.0000000000000","DECAY_DATE":null,"ECCENTRICITY":"0.00009600","MEAN_ELEMENT_THEORY":"SGP4","PERIOD":"95.592","MEAN_MOTION_DOT":"0.00017305","APOAPSIS":"547.871","CENTER_NAME":"EARTH","TIME_SYSTEM":"UTC","INCLINATION":"53.0525","RA_OF_ASC_NODE":"260.6412","MEAN_MOTION":"15.06402334","REF_FRAME":"TEME","CLASSIFICATION_TYPE":"U","MEAN_ANOMALY":"282.9558","ELEMENT_SET_NO":"999","FILE":"3867348","PERIAPSIS":"546.542"}];
